STARLINK-34460          
1 66099U 25236P   25309.25001157 -.00036763  00000+0 -24746-3 0  9990
2 66099  53.1577 326.2023 0001101 100.3767 201.4858 15.74222027  3851
STARLINK-35609          
1 66100U 25236Q   25309.25001157 -.00150775  00000+0 -10406-2 0  9990
2 66100  53.1577 326.1897 0001089  90.7363 216.8762 15.74256440  3794
STARLINK-35595          
1 66101U 25236R   25309.25001157 -.00137608  00000+0 -94784-3 0  9993
2 66101  53.1576 326.1855 0001062  93.8810 215.6434 15.74257788  3799
STARLINK-35599          
1 66102U 25236S   25309.25001157 -.00088601  00000+0 -60570-3 0  9998
2 66102  53.1577 326.1821 0000903  97.9594 213.4878 15.74239892  3795
STARLINK-35622          
1 66103U 25236T   25309.25001157 -.00127958  00000+0 -88015-3 0  9992
2 66103  53.1578 326.1744 0001091  92.4700 222.8071 15.74255466  3850
STARLINK-35452          
1 66104U 25236U   25309.25001157 -.00114372  00000+0 -78496-3 0  9991
2 66104  53.1576 326.1778 0001421  75.1191 238.2412 15.74254918  3856
STARLINK-35561          
1 66105U 25236V   25309.25001157 -.00131343  00000+0 -90365-3 0  9998
2 66105  53.1577 326.1703 0001231  91.1215 226.0695 15.74261594  3799
STARLINK-35584          
1 66106U 25236W   25309.25001157 -.00171762  00000+0 -11878-2 0  9999
2 66106  53.1576 326.1652 0001484  85.2010 233.9031 15.74277801  3855
STARLINK-35593          
1 66107U 25236X   25309.25001157 -.00125963  00000+0 -86614-3 0  9993
2 66107  53.1578 326.1617 0001523  82.9651 238.0629 15.74254445  3856
STARLINK-35590          
1 66108U 25236Y   25309.25001157 -.00146604  00000+0 -10101-2 0  9996
2 66108  53.1578 326.1534 0000986  74.8968 249.9561 15.74281967  3796
STARLINK-35545          
1 66109U 25236Z   25309.25001157 -.00133090  00000+0 -91597-3 0  9991
2 66109  53.1578 326.1574 0001399  87.5492 235.3953 15.74259574  3853
STARLINK-35427          
1 66110U 25236AA  25309.25001157 -.00124372  00000+0 -85490-3 0  9991
2 66110  53.1578 326.1488 0001061  86.7162 240.0583 15.74258261  3854
